{"type": "FeatureCollection", "features": [ {"type": "Feature", "properties": {"norad_id": 34819, "name": "COSMOS 2251 DEB", "group": "cosmos-2251-debris", "lat": -53.34421599585802, "lon": 117.12840829423847, "alt_km": 682.9946407640782, "timestamp": "2025-12-14T05:42:18.857902+00:00", "meta": {"OBJECT_NAME": "COSMOS 2251 DEB", "OBJECT_ID": "1993-036ABJ", "EPOCH": "2025-12-13T12:16:33.996576", "MEAN_MOTION": 14.63990512, "ECCENTRICITY": 0.00157016, "INCLINATION": 74.0178, "RA_OF_ASC_NODE": 141.1753, "ARG_OF_PERICENTER": 235.5985, "MEAN_ANOMALY": 201.8746, "EPHEMERIS_TYPE": 0, "CLASSIFICATION_TYPE": "U", "NORAD_CAT_ID": 34819, "ELEMENT_SET_NO": 999, "REV_AT_EPOCH": 88240, "BSTAR": 0.0026550705, "MEAN_MOTION_DOT": 0.00013936, "MEAN_MOTION_DDOT": 0}, "tle": {"line1": "1 34819U 93036ABJ 25347.51150459  .00013936  00000+0  26551-2 0  9999", "line2": "2 34819  74.0178 141.1753 0015701 235.5985 201.8746 14.63990512882407"}}, "geometry": {"type": "Point", "coordinates": [117.12840829423847, -53.34421599585802]}}, {"type": "Feature", "properties": {"norad_id": 34823, "name": "COSMOS 2251 DEB", "group": "cosmos-2251-debris", "lat": -53.5062029421964, "lon": 76.68897405041795, "alt_km": 768.8474039380608, "timestamp": "2025-12-14T05:42:18.857912+00:00", "meta": {"OBJECT_NAME": "COSMOS 2251 DEB", "OBJECT_ID": "1993-036ABN", "EPOCH": "2025-12-12T17:39:59.934240", "MEAN_MOTION": 14.54931387, "ECCENTRICITY": 0.0154702, "INCLINATION": 74.041, "RA_OF_ASC_NODE": 102.2866, "ARG_OF_PERICENTER": 187.0633, "MEAN_ANOMALY": 172.8354, "EPHEMERIS_TYPE": 0, "CLASSIFICATION_TYPE": "U", "NORAD_CAT_ID": 34823, "ELEMENT_SET_NO": 999, "REV_AT_EPOCH": 88381, "BSTAR": 0.0011937013, "MEAN_MOTION_DOT": 6.001e-05, "MEAN_MOTION_DDOT": 0}, "tle": {"line1": "1 34823U 93036ABN 25346.73611035  .00006001  00000+0  11937-2 0  9996", "line2": "2 34823  74.0410 102.2866 0154702 187.0633 172.8354 14.54931387883813"}}, "geometry": {"type": "Point", "coordinates": [76.68897405041795, -53.5062029421964]}}, {"type": "Feature", "properties": {"norad_id": 34845, "name": "COSMOS 2251 DEB", "group": "cosmos-2251-debris", "lat": -39.0125655813125, "lon": -21.02329619849552, "alt_km": 743.9117890483176, "timestamp": "2025-12-14T05:42:18.857923+00:00", "meta": {"OBJECT_NAME": "COSMOS 2251 DEB", "OBJECT_ID": "1993-036ABP", "EPOCH": "2025-12-09T20:04:05.418048", "MEAN_MOTION": 14.45850049, "ECCENTRICITY": 0.00222586, "INCLINATION": 74.0237, "RA_OF_ASC_NODE": 153.7694, "ARG_OF_PERICENTER": 315.2139, "MEAN_ANOMALY": 44.7222, "EPHEMERIS_TYPE": 0, "CLASSIFICATION_TYPE": "U", "NORAD_CAT_ID": 34845, "ELEMENT_SET_NO": 999, "REV_AT_EPOCH": 87424, "BSTAR": 0.00046671234, "MEAN_MOTION_DOT": 1.636e-05, "MEAN_MOTION_DDOT": 0}, "tle": {"line1": "1 34845U 93036ABP 25343.83617382  .00001636  00000+0  46671-3 0  9992", "line2": "2 34845  74.0237 153.7694 0022258 315.2139  44.7222 14.45850049874243"}}, "geometry": {"type": "Point", "coordinates": [-21.02329619849552, -39.0125655813125]}}, {"type": "Feature", "properties": {"norad_id": 34846, "name": "COSMOS 2251 DEB", "group": "cosmos-2251-debris", "lat": 11.923891471723774, "lon": 75.507713217774, "alt_km": 752.8187839773173, "timestamp": "2025-12-14T05:42:18.857934+00:00", "meta": {"OBJECT_NAME": "COSMOS 2251 DEB", "OBJECT_ID": "1993-036ABQ", "EPOCH": "2025-12-13T12:20:32.957376", "MEAN_MOTION": 14.47222822, "ECCENTRICITY": 0.00260962, "INCLINATION": 74.0309, "RA_OF_ASC_NODE": 260.3267, "ARG_OF_PERICENTER": 326.6171, "MEAN_ANOMALY": 33.3341, "EPHEMERIS_TYPE": 0, "CLASSIFICATION_TYPE": "U", "NORAD_CAT_ID": 34846, "ELEMENT_SET_NO": 999, "REV_AT_EPOCH": 87415, "BSTAR": 0.001088392, "MEAN_MOTION_DOT": 3.969e-05, "MEAN_MOTION_DDOT": 0}, "tle": {"line1": "1 34846U 93036ABQ 25347.51427034  .00003969  00000+0  10884-2 0  9992", "line2": "2 34846  74.0309 260.3267 0026096 326.6171  33.3341 14.47222822874151"}}, "geometry": {"type": "Point", "coordinates": [75.507713217774, 11.923891471723774]}}, {"type": "Feature", "properties": {"norad_id": 34852, "name": "COSMOS 2251 DEB", "group": "cosmos-2251-debris", "lat": 1.1981377322908526, "lon": 79.87495231397668, "alt_km": 782.4422297691799, "timestamp": "2025-12-14T05:42:18.857944+00:00", "meta": {"OBJECT_NAME": "COSMOS 2251 DEB", "OBJECT_ID": "1993-036ABW", "EPOCH": "2025-12-13T10:29:52.444320", "MEAN_MOTION": 14.37006008, "ECCENTRICITY": 0.00162543, "INCLINATION": 74.0331, "RA_OF_ASC_NODE": 261.6893, "ARG_OF_PERICENTER": 4.7369, "MEAN_ANOMALY": 355.3935, "EPHEMERIS_TYPE": 0, "CLASSIFICATION_TYPE": "U", "NORAD_CAT_ID": 34852, "ELEMENT_SET_NO": 999, "REV_AT_EPOCH": 87544, "BSTAR": 0.00018836767, "MEAN_MOTION_DOT": 5.33e-06, "MEAN_MOTION_DDOT": 0}, "tle": {"line1": "1 34852U 93036ABW 25347.43741255  .00000533  00000+0  18837-3 0  9995", "line2": "2 34852  74.0331 261.6893 0016254   4.7369 355.3935 14.37006008875444"}}, "geometry": {"type": "Point", "coordinates": [79.87495231397668, 1.1981377322908526]}}, {"type": "Feature", "properties": {"norad_id": 34854, "name": "COSMOS 2251 DEB", "group": "cosmos-2251-debris", "lat": -59.70753375950268, "lon": 126.2899837005853, "alt_km": 606.1174343718812, "timestamp": "2025-12-14T05:42:18.857954+00:00", "meta": {"OBJECT_NAME": "COSMOS 2251 DEB", "OBJECT_ID": "1993-036ABY", "EPOCH": "2025-12-12T18:13:14.177568", "MEAN_MOTION": 14.76625947, "ECCENTRICITY": 0.00661438, "INCLINATION": 74.0288, "RA_OF_ASC_NODE": 158.5442, "ARG_OF_PERICENTER": 270.2181, "MEAN_ANOMALY": 89.1414, "EPHEMERIS_TYPE": 0, "CLASSIFICATION_TYPE": "U", "NORAD_CAT_ID": 34854, "ELEMENT_SET_NO": 999, "REV_AT_EPOCH": 71882, "BSTAR": 0.0010403851, "MEAN_MOTION_DOT": 7.508e-05, "MEAN_MOTION_DDOT": 0}, "tle": {"line1": "1 34854U 93036ABY 25346.75919187  .00007508  00000+0  10404-2 0  9992", "line2": "2 34854  74.0288 158.5442 0066143 270.2181  89.1414 14.76625947718829"}}, "geometry": {"type": "Point", "coordinates": [126.2899837005853, -59.70753375950268]}}, {"type": "Feature", "properties": {"norad_id": 34856, "name": "COSMOS 2251 DEB", "group": "cosmos-2251-debris", "lat": 11.283112160297282, "lon": -101.51229636377865, "alt_km": 534.6701425997435, "timestamp": "2025-12-14T05:42:18.857966+00:00", "meta": {"OBJECT_NAME": "COSMOS 2251 DEB", "OBJECT_ID": "1993-036ACA", "EPOCH": "2025-12-13T08:31:18.425568", "MEAN_MOTION": 15.06125837, "ECCENTRICITY": 0.00327715, "INCLINATION": 73.9969, "RA_OF_ASC_NODE": 83.5849, "ARG_OF_PERICENTER": 221.436, "MEAN_ANOMALY": 203.1687, "EPHEMERIS_TYPE": 0, "CLASSIFICATION_TYPE": "U", "NORAD_CAT_ID": 34856, "ELEMENT_SET_NO": 999, "REV_AT_EPOCH": 89121, "BSTAR": 0.0031648688, "MEAN_MOTION_DOT": 0.00047128, "MEAN_MOTION_DDOT": 0}, "tle": {"line1": "1 34856U 93036ACA 25347.35507437  .00047128  00000+0  31649-2 0  9998", "line2": "2 34856  73.9969  83.5849 0032771 221.4360 203.1687 15.06125837891212"}}, "geometry": {"type": "Point", "coordinates": [-101.51229636377865, 11.283112160297282]}}, {"type": "Feature", "properties": {"norad_id": 34857, "name": "COSMOS 2251 DEB", "group": "cosmos-2251-debris", "lat": -68.58566261946424, "lon": 57.00910784337812, "alt_km": 677.5609013920002, "timestamp": "2025-12-14T05:42:18.857977+00:00", "meta": {"OBJECT_NAME": "COSMOS 2251 DEB", "OBJECT_ID": "1993-036ACB", "EPOCH": "2025-12-13T12:32:08.232000", "MEAN_MOTION": 14.58904471, "ECCENTRICITY": 0.0065829, "INCLINATION": 74.015, "RA_OF_ASC_NODE": 105.3358, "ARG_OF_PERICENTER": 229.6695, "MEAN_ANOMALY": 258.3689, "EPHEMERIS_TYPE": 0, "CLASSIFICATION_TYPE": "U", "NORAD_CAT_ID": 34857, "ELEMENT_SET_NO": 999, "REV_AT_EPOCH": 87912, "BSTAR": 0.0014049497, "MEAN_MOTION_DOT": 6.759e-05, "MEAN_MOTION_DDOT": 0}, "tle": {"line1": "1 34857U 93036ACB 25347.52231750  .00006759  00000+0  14049-2 0  9990", "line2": "2 34857  74.0150 105.3358 0065829 229.6695 258.3689 14.58904471879121"}}, "geometry": {"type": "Point", "coordinates": [57.00910784337812, -68.58566261946424]}}, {"type": "Feature", "properties": {"norad_id": 34859, "name": "COSMOS 2251 DEB", "group": "cosmos-2251-debris", "lat": 1.7881780148582849, "lon": 156.02969107823535, "alt_km": 524.2608367131006, "timestamp": "2025-12-14T05:42:18.857988+00:00", "meta": {"OBJECT_NAME": "COSMOS 2251 DEB", "OBJECT_ID": "1993-036ACD", "EPOCH": "2025-12-13T10:27:28.319616", "MEAN_MOTION": 15.14950815, "ECCENTRICITY": 0.00020891, "INCLINATION": 74.0317, "RA_OF_ASC_NODE": 338.2099, "ARG_OF_PERICENTER": 342.6349, "MEAN_ANOMALY": 143.1101, "EPHEMERIS_TYPE": 0, "CLASSIFICATION_TYPE": "U", "NORAD_CAT_ID": 34859, "ELEMENT_SET_NO": 999, "REV_AT_EPOCH": 88369, "BSTAR": 0.0080515741, "MEAN_MOTION_DOT": 0.00153394, "MEAN_MOTION_DDOT": 0}, "tle": {"line1": "1 34859U 93036ACD 25347.43574444  .00153394  00000+0  80516-2 0  9992", "line2": "2 34859  74.0317 338.2099 0002089 342.6349 143.1101 15.14950815883691"}}, "geometry": {"type": "Point", "coordinates": [156.02969107823535, 1.7881780148582849]}}, {"type": "Feature", "properties": {"norad_id": 34861, "name": "COSMOS 2251 DEB", "group": "cosmos-2251-debris", "lat": 17.637970335106402, "lon": 53.019205076336554, "alt_km": 554.0263165885399, "timestamp": "2025-12-14T05:42:18.857998+00:00", "meta": {"OBJECT_NAME": "COSMOS 2251 DEB", "OBJECT_ID": "1993-036ACF", "EPOCH": "2025-12-13T12:19:29.078400", "MEAN_MOTION": 15.0266086, "ECCENTRICITY": 0.00071969, "INCLINATION": 74.0183, "RA_OF_ASC_NODE": 49.2699, "ARG_OF_PERICENTER": 44.2074, "MEAN_ANOMALY": 18.3316, "EPHEMERIS_TYPE": 0, "CLASSIFICATION_TYPE": "U", "NORAD_CAT_ID": 34861, "ELEMENT_SET_NO": 999, "REV_AT_EPOCH": 88104, "BSTAR": 0.0039582398, "MEAN_MOTION_DOT": 0.00053191, "MEAN_MOTION_DDOT": 0}, "tle": {"line1": "1 34861U 93036ACF 25347.51353100  .00053191  00000+0  39582-2 0  9999", "line2": "2 34861  74.0183  49.2699 0007196  44.2074  18.3316 15.02660860881047"}}, "geometry": {"type": "Point", "coordinates": [53.019205076336554, 17.637970335106402]}}]}